{
"type": "FeatureCollection",
"name": "Veracruz_Tampico_flight_lines",
"crs": { "type": "name", "properties": { "name": "urn:ogc:def:crs:OGC:1.3:CRS84" } },
"features": [
{ "type": "Feature", "properties": { "line_id": "FL_001", "offset_m": -30.0 }, "geometry": { "type": "LineString", "coordinates": [ [ -85.941462803945541, -9.032116599272527 ], [ -85.923721847945586, -9.025631928272514 ], [ -83.216246751924174, -7.882737897991532 ], [ -80.633586521632253, -6.480420425057368 ], [ -78.200525019372819, -4.832136503443397 ], [ -75.940410520129774, -2.953703483519767 ], [ -73.874931655602069, -0.863147284749363 ], [ -72.023909284595589, 1.419470585605126 ], [ -70.405106287037341, 3.872245547790707 ], [ -69.034057106876475, 6.471640151464467 ], [ -67.923918679622076, 9.192709947034061 ], [ -67.085344175054502, 12.009342858919688 ], [ -66.526380766707604, 14.894509763651069 ], [ -66.252392409151298, 17.820523868188442 ], [ -66.251756041151282, 17.83485783318843 ], [ -66.293260748214863, 21.22855242571892 ], [ -66.71781926603262, 24.595841497513547 ], [ -67.520731218261048, 27.896039818800457 ], [ -67.804109632831725, 28.702459603186306 ], [ -67.994423258815985, 29.360774507941926 ], [ -68.958392116401228, 31.844269025194677 ], [ -68.994486516401196, 31.926266725194665 ], [ -69.240945490811697, 32.471357208979228 ], [ -69.246995590811679, 32.48439040897923 ], [ -70.86658730203726, 35.507697516648967 ], [ -71.226471449878147, 36.026815864150336 ], [ -71.37256094139083, 36.34208169156615 ] ] } },
{ "type": "Feature", "properties": { "line_id": "FL_002", "offset_m": 54.0 }, "geometry": { "type": "LineString", "coordinates": [ [ -133.338262529706242, -20.020958841559299 ], [ -133.363735602280656, -20.04784343973207 ], [ -133.395374229280606, -20.017865939732044 ], [ -135.304329324523138, -18.081534891503505 ] ] } },
{ "type": "Feature", "properties": { "line_id": "FL_003", "offset_m": 138.0 }, "geometry": { "type": "LineString", "coordinates": [ [ -191.055042968717913, -80.935968029994214 ], [ -191.138413528717194, -81.023958357759781 ], [ -191.170052155717144, -80.993980857759752 ], [ -194.127211052158771, -77.994413921902833 ] ] } },
{ "type": "Feature", "properties": { "line_id": "FL_004", "offset_m": 222.0 }, "geometry": { "type": "LineString", "coordinates": [ [ -248.771823407729613, -141.850977218429108 ], [ -248.91309145515379, -142.000073275787514 ], [ -248.94473008215374, -141.970095775787485 ], [ -252.928286531438118, -137.966070001728724 ] ] } },
{ "type": "Feature", "properties": { "line_id": "FL_005", "offset_m": 306.0 }, "geometry": { "type": "LineString", "coordinates": [ [ -306.488603846741285, -202.765986406864016 ], [ -306.687769381590329, -202.976188193815233 ], [ -306.719408008590335, -202.946210693815203 ], [ -311.487005947791886, -198.154114668078734 ] ] } },
{ "type": "Feature", "properties": { "line_id": "FL_006", "offset_m": 390.0 }, "geometry": { "type": "LineString", "coordinates": [ [ -364.205384285752984, -263.680995595298896 ], [ -364.462447308026924, -263.952303111842923 ], [ -364.494085935026874, -263.922325611842894 ], [ -370.045725364145767, -258.342159334428629 ] ] } },
{ "type": "Feature", "properties": { "line_id": "FL_007", "offset_m": 474.0 }, "geometry": { "type": "LineString", "coordinates": [ [ -421.922164724764684, -324.596004783733861 ], [ -422.23712523446352, -324.92841802987067 ], [ -428.593426701675639, -318.540041536816034 ] ] } },
{ "type": "Feature", "properties": { "line_id": "FL_008", "offset_m": 558.0 }, "geometry": { "type": "LineString", "coordinates": [ [ -479.638945163776327, -385.511013972168712 ], [ -480.011803160900058, -385.90453294789836 ], [ -487.151908128911259, -378.728298692708336 ] ] } },
{ "type": "Feature", "properties": { "line_id": "FL_009", "offset_m": 642.0 }, "geometry": { "type": "LineString", "coordinates": [ [ -537.35572560278797, -446.42602316060362 ], [ -537.786481087336597, -446.880647865926107 ], [ -545.710451797814244, -438.916500275877411 ] ] } },
{ "type": "Feature", "properties": { "line_id": "FL_010", "offset_m": 726.0 }, "geometry": { "type": "LineString", "coordinates": [ [ -595.072506041799784, -507.341032349038528 ], [ -595.561159013773249, -507.856762783953798 ], [ -604.269036114840787, -499.104665566205597 ] ] } }
]
}
