{
"type": "FeatureCollection",
"name": "Tampico_SanLuis_flight_lines",
"crs": { "type": "name", "properties": { "name": "urn:ogc:def:crs:OGC:1.3:CRS84" } },
"features": [
{ "type": "Feature", "properties": { "line_id": "FL_001", "type": "flight_line", "altitude_m": 80, "block_name": "01_Canalizacion_minicepa", "block_num": 1 }, "geometry": { "type": "LineString", "coordinates": [ [ -98.561889153416175, 52.238911245404211 ], [ -98.56254842446188, 52.267471144392118 ], [ -98.566149304461902, 52.26738802239214 ], [ -99.680167397787301, 52.188123879175329 ] ] } },
{ "type": "Feature", "properties": { "line_id": "FL_001", "type": "flight_line", "altitude_m": 80, "block_name": "02_Canalizacion_tipo_A", "block_num": 1 }, "geometry": { "type": "LineString", "coordinates": [ [ -104.568894312256518, 51.474956109522203 ], [ -104.578285420256506, 51.472830502522214 ], [ -104.576696946176185, 51.465812492305098 ] ] } },
{ "type": "Feature", "properties": { "line_id": "FL_001", "type": "flight_line", "altitude_m": 80, "block_name": "03_Canalizacion_tipo_A", "block_num": 1 }, "geometry": { "type": "LineString", "coordinates": [ [ -108.530369130415451, 50.276932398346482 ], [ -108.535836294711331, 50.291495450868041 ] ] } },
{ "type": "Feature", "properties": { "line_id": "FL_001", "type": "flight_line", "altitude_m": 80, "block_name": "04_Canalizacion_tipo_A", "block_num": 1 }, "geometry": { "type": "LineString", "coordinates": [ ] } },
{ "type": "Feature", "properties": { "line_id": "FL_001", "type": "flight_line", "altitude_m": 80, "block_name": "04_Canalizacion_tipo_A", "block_num": 2 }, "geometry": { "type": "LineString", "coordinates": [ [ -88.769571789824724, 50.636993453336935 ], [ -88.31815002785649, 50.480962869153608 ], [ -88.318539169374688, 50.479856343574887 ] ] } },
{ "type": "Feature", "properties": { "line_id": "FL_001", "type": "flight_line", "altitude_m": 80, "block_name": "05_Canalizacion_tipo_A", "block_num": 2 }, "geometry": { "type": "LineString", "coordinates": [ [ -90.242149656302928, 51.090382910399086 ], [ -90.249155901299389, 51.065362566073105 ] ] } },
{ "type": "Feature", "properties": { "line_id": "FL_001", "type": "flight_line", "altitude_m": 80, "block_name": "06_Canalizacion_tipo_A", "block_num": 2 }, "geometry": { "type": "LineString", "coordinates": [ [ -88.309204530753647, 50.477775533766703 ], [ -88.315145603753678, 50.479888187766733 ], [ -88.318645927285189, 50.470044797592934 ], [ -91.072215635604806, 51.314751688711723 ], [ -91.275290360107277, 51.364985222534202 ], [ -94.524789267838116, 51.969433391227597 ], [ -97.821419682581478, 52.212751051837245 ], [ -100.302917593406193, 52.156124150036277 ], [ -102.771667832093172, 51.894489099361273 ], [ -105.653419240897676, 51.322487644599356 ], [ -105.668696808897664, 51.318669044599368 ], [ -106.813185396147944, 51.008450457463823 ], [ -109.925812070239829, 49.909177610615615 ], [ -111.868276249317873, 48.971860771272752 ] ] } },
{ "type": "Feature", "properties": { "line_id": "FL_001", "type": "flight_line", "altitude_m": 80, "block_name": "07_Canalizacion_tipo_A", "block_num": 2 }, "geometry": { "type": "LineString", "coordinates": [ [ -112.146027497433877, 48.872129633938272 ], [ -112.165137366433854, 48.862374435938278 ] ] } },
{ "type": "Feature", "properties": { "line_id": "FL_001", "type": "flight_line", "altitude_m": 80, "block_name": "08_Canalizacion_tipo_A", "block_num": 2 }, "geometry": { "type": "LineString", "coordinates": [ [ -112.396161282313614, 48.743151060781841 ], [ -112.393244880454574, 48.737550194416983 ], [ -112.509805669558418, 48.679059738821799 ] ] } },
{ "type": "Feature", "properties": { "line_id": "FL_001", "type": "flight_line", "altitude_m": 80, "block_name": "08_Canalizacion_tipo_A", "block_num": 3 }, "geometry": { "type": "LineString", "coordinates": [ [ -112.4762287774561, 48.701992121882398 ], [ -112.481925260925223, 48.699037616298654 ], [ -112.515769782051805, 48.681456701263414 ], [ -112.554862886051765, 48.661117786263389 ], [ -115.117728659690329, 47.16212321623415 ], [ -117.520319469248562, 45.416777512537067 ], [ -119.632006123190735, 43.546763050066829 ] ] } },
{ "type": "Feature", "properties": { "line_id": "FL_001", "type": "flight_line", "altitude_m": 80, "block_name": "09_Canalizacion_minicepa", "block_num": 3 }, "geometry": { "type": "LineString", "coordinates": [ [ -84.532834024972331, 48.414605188386801 ], [ -84.538874220972346, 48.417857845386813 ], [ -84.549947794159309, 48.397294179291855 ], [ -86.334711305688074, 49.309107786416135 ], [ -88.844606138037776, 50.317774834277664 ], [ -91.435153675228506, 51.096263588501145 ], [ -94.085292819657965, 51.638244951704792 ], [ -96.773477995196316, 51.939312626677228 ], [ -99.478918134271993, 51.996993654482182 ], [ -102.137521607826415, 51.815417975996205 ], [ -103.974197330607325, 51.524578024109296 ] ] } },
{ "type": "Feature", "properties": { "line_id": "FL_001", "type": "flight_line", "altitude_m": 80, "block_name": "010_Canalizacion_tipo_A", "block_num": 3 }, "geometry": { "type": "LineString", "coordinates": [ [ -121.371904987622443, 41.741134639148072 ], [ -121.734076285873726, 41.31885758646488 ], [ -123.160712874386519, 39.484127090952384 ], [ -124.441154835634137, 37.54426884477202 ], [ -124.551142295693751, 37.331809061021652 ] ] } },
{ "type": "Feature", "properties": { "line_id": "FL_001", "type": "flight_line", "altitude_m": 80, "block_name": "011_Canalizacion_tipo_A", "block_num": 3 }, "geometry": { "type": "LineString", "coordinates": [ [ -121.356288176808349, 41.74440726702646 ], [ -121.351701200806772, 41.74038659930271 ] ] } },
{ "type": "Feature", "properties": { "line_id": "FL_001", "type": "flight_line", "altitude_m": 80, "block_name": "012_Canalizacion_tipo_A", "block_num": 3 }, "geometry": { "type": "LineString", "coordinates": [ [ -96.679807960917501, 51.893753524682054 ], [ -96.685643978917469, 51.894173535682071 ], [ -96.68610650219982, 51.887746813046022 ], [ -97.024387631820929, 51.894029067720169 ] ] } },
{ "type": "Feature", "properties": { "line_id": "FL_001", "type": "flight_line", "altitude_m": 80, "block_name": "013_Canalizacion_tipo_A", "block_num": 3 }, "geometry": { "type": "LineString", "coordinates": [ [ -71.974576622411632, 35.200307616640508 ], [ -71.980800100011777, 35.19724723949804 ], [ -73.119948012882674, 37.321570342645138 ], [ -74.596841065481513, 39.56684581645176 ], [ -76.346474842375613, 41.759943224112021 ], [ -78.145812021240801, 43.639694212399775 ], [ -80.000511127418946, 45.275123151120084 ], [ -81.983596074668057, 46.752252353341689 ], [ -84.081829241580166, 48.061179960339892 ], [ -84.736189239060366, 48.422130829578961 ], [ -86.266780139776984, 49.186401983111494 ], [ -90.306975544086953, 50.718758540814349 ], [ -91.392252933769569, 51.021064622015615 ], [ -93.301828242565122, 51.396573316903584 ] ] } },
{ "type": "Feature", "properties": { "line_id": "FL_001", "type": "flight_line", "altitude_m": 80, "block_name": "014_Canalizacion_tipo_A", "block_num": 3 }, "geometry": { "type": "LineString", "coordinates": [ [ -128.691947263390404, 17.924875510966118 ], [ -128.691490374390384, 17.921523291966089 ], [ -128.689385211305847, 17.921810214108277 ] ] } },
{ "type": "Feature", "properties": { "line_id": "FL_001", "type": "flight_line", "altitude_m": 80, "block_name": "015_Canalizacion_minicepa", "block_num": 3 }, "geometry": { "type": "LineString", "coordinates": [ [ -112.410634572150016, 48.788434226954585 ], [ -112.404818467280748, 48.776804864664108 ], [ -112.896859252754496, 48.519693331482557 ] ] } },
{ "type": "Feature", "properties": { "line_id": "FL_001", "type": "flight_line", "altitude_m": 80, "block_name": "016_Canalizacion_tipo_A", "block_num": 3 }, "geometry": { "type": "LineString", "coordinates": [ [ -112.070131575482421, 48.967436341584417 ], [ -112.074030793482436, 48.965549669584398 ], [ -112.06712775006136, 48.951283029086156 ] ] } },
{ "type": "Feature", "properties": { "line_id": "FL_001", "type": "flight_line", "altitude_m": 80, "block_name": "016_Canalizacion_tipo_A", "block_num": 4 }, "geometry": { "type": "LineString", "coordinates": [ [ -76.47571470681784, 41.76285490243248 ], [ -76.810055028546728, 42.137507380150517 ], [ -76.814985633546755, 42.1429402611505 ], [ -77.836082129763241, 43.213760731061342 ], [ -79.544104588006874, 44.791459500872556 ], [ -79.552942633006879, 44.799009955872563 ], [ -81.541431760642709, 46.357858257075009 ], [ -84.616055362827751, 48.294754703914755 ], [ -85.718171588084289, 48.81489130884831 ] ] } },
{ "type": "Feature", "properties": { "line_id": "FL_001", "type": "flight_line", "altitude_m": 80, "block_name": "017_Canalizacion_tipo_A", "block_num": 4 }, "geometry": { "type": "LineString", "coordinates": [ [ -90.824627511579891, 50.842339264980886 ], [ -90.833147089319624, 50.81251486757494 ], [ -93.366978528728438, 51.452967530071774 ], [ -94.197656698161509, 51.602198721167596 ], [ -96.671111200431213, 51.905839478312814 ], [ -97.706316357026793, 51.946275877778639 ] ] } },
{ "type": "Feature", "properties": { "line_id": "FL_001", "type": "flight_line", "altitude_m": 80, "block_name": "018_Canalizacion_Piedra_bola", "block_num": 4 }, "geometry": { "type": "LineString", "coordinates": [ [ -110.183448712725351, 49.852605749701517 ], [ -110.196145809296709, 49.884606373605941 ], [ -110.255999170296732, 49.860857964605941 ], [ -110.398869176698668, 49.803746015297811 ], [ -110.551375776698649, 49.74232781529782 ], [ -111.058467682078458, 49.515947543257184 ] ] } },
{ "type": "Feature", "properties": { "line_id": "FL_001", "type": "flight_line", "altitude_m": 80, "block_name": "018_Canalizacion_Piedra_bola", "block_num": 5 }, "geometry": { "type": "LineString", "coordinates": [ [ -73.202004446455646, 36.597922286885776 ], [ -74.846306678511752, 39.202285862664269 ], [ -76.749065195302862, 41.624437397531537 ], [ -77.114120443736851, 42.035332008241475 ], [ -79.102435058938497, 44.034950280478967 ], [ -81.269941220404476, 45.839216231196652 ], [ -83.982819565219359, 47.666060830251496 ], [ -87.026179743811369, 49.25384150607313 ], [ -90.230996565514147, 50.483572285749354 ], [ -93.555424140637854, 51.339175339509055 ], [ -96.263614657890017, 51.745717948643303 ], [ -97.871367398624926, 51.807490424142351 ] ] } },
{ "type": "Feature", "properties": { "line_id": "FL_001", "type": "flight_line", "altitude_m": 80, "block_name": "019_Canalizacion_Piedra_bola", "block_num": 5 }, "geometry": { "type": "LineString", "coordinates": [ [ -118.03331785998752, 45.497932280987044 ], [ -118.03468639879992, 45.499685716618536 ] ] } },
{ "type": "Feature", "properties": { "line_id": "FL_001", "type": "flight_line", "altitude_m": 80, "block_name": "020_Canalizacion_minicepa", "block_num": 5 }, "geometry": { "type": "LineString", "coordinates": [ [ -117.019331576607215, 46.295539363913534 ], [ -117.004969808860125, 46.27536644970094 ] ] } },
{ "type": "Feature", "properties": { "line_id": "FL_001", "type": "flight_line", "altitude_m": 80, "block_name": "021_Canalizacion_minicepa", "block_num": 5 }, "geometry": { "type": "LineString", "coordinates": [ [ -84.902165555826485, 47.98490465865035 ], [ -84.910112828227511, 47.970807716605378 ], [ -85.344100742940071, 48.234435496465473 ], [ -87.992978873944992, 49.507127125066198 ], [ -90.200261744653787, 50.310632900399817 ] ] } },
{ "type": "Feature", "properties": { "line_id": "FL_001", "type": "flight_line", "altitude_m": 80, "block_name": "021_Canalizacion_minicepa", "block_num": 6 }, "geometry": { "type": "LineString", "coordinates": [ [ -120.303718586598237, 43.756962936959567 ], [ -120.273644488262732, 43.763677572098047 ] ] } },
{ "type": "Feature", "properties": { "line_id": "FL_001", "type": "flight_line", "altitude_m": 80, "block_name": "022_Canalizacion_Piedra_bola", "block_num": 6 }, "geometry": { "type": "LineString", "coordinates": [ [ -92.772850677788085, 51.043268128108103 ], [ -92.769339668731433, 51.057900549222083 ], [ -92.806312175731392, 51.066772000222088 ], [ -93.690163814657765, 51.264788368411118 ], [ -94.853395535713886, 51.483274613429202 ], [ -94.871332921713858, 51.486278699429178 ], [ -95.060731142920176, 51.507947939401966 ] ] } },
{ "type": "Feature", "properties": { "line_id": "FL_001", "type": "flight_line", "altitude_m": 80, "block_name": "023_Canalizacion_Piedra_bola", "block_num": 6 }, "geometry": { "type": "LineString", "coordinates": [ [ -99.113702094111972, 51.885748899010821 ], [ -99.174718686139045, 51.890114599133767 ], [ -99.180313386139062, 51.890239607133765 ], [ -99.180328094142453, 51.889581354329344 ] ] } },
{ "type": "Feature", "properties": { "line_id": "FL_001", "type": "flight_line", "altitude_m": 80, "block_name": "024_Canalizacion_minicepa", "block_num": 6 }, "geometry": { "type": "LineString", "coordinates": [ [ -92.185901435661691, 50.896386385269672 ], [ -92.194041914827579, 50.866048164146392 ] ] } },
{ "type": "Feature", "properties": { "line_id": "FL_001", "type": "flight_line", "altitude_m": 80, "block_name": "025_Canalizacion_Piedra_bola", "block_num": 6 }, "geometry": { "type": "LineString", "coordinates": [ [ -84.173690897281361, 47.377844515759676 ], [ -84.164857737989905, 47.391982915363542 ], [ -84.221957985989889, 47.427657079363534 ], [ -84.553991027539652, 47.628573470670425 ], [ -84.599085176411364, 47.658954426253743 ], [ -84.646198136383504, 47.684368880293754 ], [ -84.954015233280103, 47.870631970263254 ], [ -85.415971218077601, 48.09961263949554 ] ] } },
{ "type": "Feature", "properties": { "line_id": "FL_001", "type": "flight_line", "altitude_m": 80, "block_name": "026_Canalizacion_minicepa", "block_num": 6 }, "geometry": { "type": "LineString", "coordinates": [ [ -89.671514507973313, 50.107773407103885 ], [ -89.67882242697334, 50.110488761103923 ], [ -89.682465006063111, 50.100685371586806 ] ] } },
{ "type": "Feature", "properties": { "line_id": "FL_001", "type": "flight_line", "altitude_m": 80, "block_name": "027_Canalizacion_Piedra_bola", "block_num": 6 }, "geometry": { "type": "LineString", "coordinates": [ [ -84.577973358979492, 47.644396238376501 ], [ -84.594428179573612, 47.617252942510319 ] ] } },
{ "type": "Feature", "properties": { "line_id": "FL_001", "type": "flight_line", "altitude_m": 80, "block_name": "027_Canalizacion_Piedra_bola", "block_num": 7 }, "geometry": { "type": "LineString", "coordinates": [ [ -78.498917620505694, 42.751299730140779 ], [ -78.487306645913193, 42.762434253151326 ], [ -78.492856945913175, 42.768222053151334 ], [ -78.689911824005591, 42.971776244602509 ], [ -78.737184816737383, 43.018674582876208 ], [ -78.748948017684825, 43.031874822652227 ] ] } },
{ "type": "Feature", "properties": { "line_id": "FL_001", "type": "flight_line", "altitude_m": 80, "block_name": "028_Canalizacion_tipo_A", "block_num": 7 }, "geometry": { "type": "LineString", "coordinates": [ [ -95.457783575922875, 51.613224064233151 ], [ -95.459750127269103, 51.601371051715653 ] ] } },
{ "type": "Feature", "properties": { "line_id": "FL_001", "type": "flight_line", "altitude_m": 80, "block_name": "030_Canalizacion_tipo_A", "block_num": 7 }, "geometry": { "type": "LineString", "coordinates": [ [ -111.957040070396985, 49.753553813125009 ], [ -111.948617670204612, 49.733274676720391 ] ] } },
{ "type": "Feature", "properties": { "line_id": "FL_001", "type": "flight_line", "altitude_m": 80, "block_name": "031_Canalizado_Piedra_bola", "block_num": 7 }, "geometry": { "type": "LineString", "coordinates": [ [ -114.945297636489926, 48.376098490238185 ], [ -114.936563731978964, 48.373107104909906 ] ] } },
{ "type": "Feature", "properties": { "line_id": "FL_001", "type": "flight_line", "altitude_m": 80, "block_name": "031_Canalizado_Piedra_bola", "block_num": 8 }, "geometry": { "type": "LineString", "coordinates": [ [ -92.561373358189996, 51.009025686194171 ], [ -94.042137669258324, 51.321278545254437 ] ] } },
{ "type": "Feature", "properties": { "line_id": "FL_001", "type": "flight_line", "altitude_m": 80, "block_name": "032_Canalizacion_tipo_A", "block_num": 8 }, "geometry": { "type": "LineString", "coordinates": [ [ -81.693460584290719, 45.319964828749427 ], [ -81.696217437416223, 45.316593819121756 ], [ -81.918013332670526, 45.502030570843559 ], [ -82.669614549255328, 46.085556874752754 ], [ -86.367223204525089, 48.460844366605507 ], [ -89.318283929612633, 49.861784002744145 ], [ -90.061285966507981, 50.123673816647425 ] ] } },
{ "type": "Feature", "properties": { "line_id": "FL_001", "type": "flight_line", "altitude_m": 80, "block_name": "033_Canalizacion_minicepa", "block_num": 8 }, "geometry": { "type": "LineString", "coordinates": [ [ -89.830282184807331, 50.029888302109995 ], [ -89.826685374392525, 50.039142459902521 ], [ -89.986070612580377, 50.09893646025062 ], [ -90.030111364535031, 50.118456092415002 ], [ -90.031121388905873, 50.115837436563837 ] ] } },
{ "type": "Feature", "properties": { "line_id": "FL_001", "type": "flight_line", "altitude_m": 80, "block_name": "033_Canalizacion_minicepa", "block_num": 9 }, "geometry": { "type": "LineString", "coordinates": [ [ -90.729853316105263, 50.372934450803427 ], [ -90.728117696517216, 50.377773617861905 ], [ -90.732672696517199, 50.379407317861926 ], [ -90.771343483163676, 50.393247143731564 ], [ -90.791562383163708, 50.400467643731531 ], [ -90.856388508602564, 50.423534335445595 ], [ -90.891369690546767, 50.435912969924658 ], [ -90.904569290546775, 50.440574669924658 ], [ -90.944919854087431, 50.45479291808936 ], [ -90.954399640820384, 50.458123982620378 ], [ -91.169674520028352, 50.53281296132046 ], [ -91.172739320028356, 50.533863261320427 ], [ -91.789847438935212, 50.737901940162885 ], [ -91.974972340235809, 50.796238775786819 ], [ -92.674585265693736, 51.004929347904529 ], [ -94.090776108435847, 51.371612134266854 ], [ -94.489197808615913, 51.461618806164154 ], [ -95.008456588313763, 51.570418318719625 ], [ -95.195190158573652, 51.607209334555932 ], [ -95.45790748159304, 51.65689512273191 ], [ -96.719321072909565, 51.862009804442962 ], [ -96.854531068275747, 51.880736272477435 ], [ -97.94785587816088, 52.009295083770787 ], [ -99.132724017547659, 52.102981687813269 ], [ -100.989163179873287, 52.15528892025948 ], [ -102.061717006079121, 52.133152546854866 ], [ -102.908415031775661, 52.088547016993488 ], [ -103.420009083051482, 52.049956320973166 ], [ -103.479440502519253, 52.044902800939937 ], [ -103.482475402519299, 52.044641700939948 ], [ -103.516833839090779, 52.041665863279654 ], [ -103.53995773673897, 52.039649670404856 ], [ -103.650697655793095, 52.029787179908297 ], [ -103.705840268468307, 52.024724130010185 ], [ -103.92643349388679, 51.992402463781083 ] ] } },
{ "type": "Feature", "properties": { "line_id": "FL_001", "type": "flight_line", "altitude_m": 80, "block_name": "029_Canalizacion_minicepa", "block_num": 9 }, "geometry": { "type": "LineString", "coordinates": [ [ -124.016011803171324, 3.517567943242547 ], [ -124.013300861171373, 3.514112772242566 ] ] } },
{ "type": "Feature", "properties": { "line_id": "FL_001", "type": "flight_line", "altitude_m": 80, "block_name": "Adosado", "block_num": 9 }, "geometry": { "type": "LineString", "coordinates": [ [ -83.00204921307828, -3.413427428903638 ], [ -83.01392024918222, -3.394603530094063 ] ] } },
{ "type": "Feature", "properties": { "line_id": "FL_001", "type": "flight_line", "altitude_m": 80, "block_name": "Adosado", "block_num": 9 }, "geometry": { "type": "LineString", "coordinates": [ [ -77.1503092441761, 1.198863104601891 ], [ -76.233649399463914, 2.198066665585729 ] ] } },
{ "type": "Feature", "properties": { "line_id": "FL_001", "type": "flight_line", "altitude_m": 80, "block_name": "Adosado", "block_num": 9 }, "geometry": { "type": "LineString", "coordinates": [ [ -75.073759718841927, 2.870758419771313 ], [ -75.073218708841921, 2.871399270771334 ] ] } },
{ "type": "Feature", "properties": { "line_id": "FL_001", "type": "flight_line", "altitude_m": 80, "block_name": "Adozado", "block_num": 9 }, "geometry": { "type": "LineString", "coordinates": [ [ -90.546498823675392, -6.859360589808105 ], [ -90.544529540675398, -6.858862822808096 ] ] } }
]
}
